{"fetched_at":"2026-07-08T07:03:36.533Z","source":"https://celestrak.org/NORAD/elements/gp.php?GROUP=planet&FORMAT=JSON","constellation":"superdove","records":[{"OBJECT_NAME":"FLOCK 4H-15","OBJECT_ID":"2025-276BE","EPOCH":"2026-07-07T17:22:39.762048","CLASSIFICATION_TYPE":"U","MEAN_MOTION":15.19820385,"ECCENTRICITY":0.000291,"INCLINATION":97.421,"RA_OF_ASC_NODE":261.8751,"ARG_OF_PERICENTER":318.5132,"MEAN_ANOMALY":41.5881,"EPHEMERIS_TYPE":0,"NORAD_CAT_ID":66718,"ELEMENT_SET_NO":999,"REV_AT_EPOCH":3353,"BSTAR":0.00019643,"MEAN_MOTION_DOT":0.00004141,"MEAN_MOTION_DDOT":0},{"OBJECT_NAME":"FLOCK 4H-16","OBJECT_ID":"2025-276BF","EPOCH":"2026-07-07T18:20:02.802912","CLASSIFICATION_TYPE":"U","MEAN_MOTION":15.20086773,"ECCENTRICITY":0.0002784,"INCLINATION":97.4227,"RA_OF_ASC_NODE":262.0201,"ARG_OF_PERICENTER":298.6985,"MEAN_ANOMALY":61.397,"EPHEMERIS_TYPE":0,"NORAD_CAT_ID":66719,"ELEMENT_SET_NO":999,"REV_AT_EPOCH":3354,"BSTAR":0.0002309,"MEAN_MOTION_DOT":0.00004918,"MEAN_MOTION_DDOT":0},{"OBJECT_NAME":"FLOCK 4H-18","OBJECT_ID":"2025-276BH","EPOCH":"2026-07-07T18:28:30.993024","CLASSIFICATION_TYPE":"U","MEAN_MOTION":15.20028641,"ECCENTRICITY":0.0002651,"INCLINATION":97.4166,"RA_OF_ASC_NODE":261.8458,"ARG_OF_PERICENTER":333.922,"MEAN_ANOMALY":26.1881,"EPHEMERIS_TYPE":0,"NORAD_CAT_ID":66721,"ELEMENT_SET_NO":999,"REV_AT_EPOCH":3354,"BSTAR":0.00021237,"MEAN_MOTION_DOT":0.0000451,"MEAN_MOTION_DDOT":0},{"OBJECT_NAME":"FLOCK 4H-19","OBJECT_ID":"2025-276BJ","EPOCH":"2026-07-07T17:01:09.067872","CLASSIFICATION_TYPE":"U","MEAN_MOTION":15.21229744,"ECCENTRICITY":0.0001759,"INCLINATION":97.4167,"RA_OF_ASC_NODE":262.2351,"ARG_OF_PERICENTER":163.5085,"MEAN_ANOMALY":196.6208,"EPHEMERIS_TYPE":0,"NORAD_CAT_ID":66722,"ELEMENT_SET_NO":999,"REV_AT_EPOCH":3285,"BSTAR":0.00016943,"MEAN_MOTION_DOT":0.00003713,"MEAN_MOTION_DDOT":0},{"OBJECT_NAME":"FLOCK 4H-20","OBJECT_ID":"2025-276BK","EPOCH":"2026-07-07T18:40:03.641088","CLASSIFICATION_TYPE":"U","MEAN_MOTION":15.2138313,"ECCENTRICITY":0.0002101,"INCLINATION":97.4205,"RA_OF_ASC_NODE":262.4033,"ARG_OF_PERICENTER":192.6017,"MEAN_ANOMALY":167.5166,"EPHEMERIS_TYPE":0,"NORAD_CAT_ID":66723,"ELEMENT_SET_NO":999,"REV_AT_EPOCH":3282,"BSTAR":0.00018343,"MEAN_MOTION_DOT":0.00004044,"MEAN_MOTION_DDOT":0},{"OBJECT_NAME":"FLOCK 4H-21","OBJECT_ID":"2025-276BL","EPOCH":"2026-07-07T17:47:34.863072","CLASSIFICATION_TYPE":"U","MEAN_MOTION":15.20970293,"ECCENTRICITY":0.0001945,"INCLINATION":97.4173,"RA_OF_ASC_NODE":262.1995,"ARG_OF_PERICENTER":191.9625,"MEAN_ANOMALY":168.1565,"EPHEMERIS_TYPE":0,"NORAD_CAT_ID":66724,"ELEMENT_SET_NO":999,"REV_AT_EPOCH":3281,"BSTAR":0.00022931,"MEAN_MOTION_DOT":0.00005012,"MEAN_MOTION_DDOT":0},{"OBJECT_NAME":"FLOCK 4H-22","OBJECT_ID":"2025-276BM","EPOCH":"2026-07-07T10:54:17.466912","CLASSIFICATION_TYPE":"U","MEAN_MOTION":15.2045201,"ECCENTRICITY":0.00015333,"INCLINATION":97.4161,"RA_OF_ASC_NODE":261.6346,"ARG_OF_PERICENTER":350.5487,"MEAN_ANOMALY":9.5719,"EPHEMERIS_TYPE":0,"NORAD_CAT_ID":66725,"ELEMENT_SET_NO":999,"REV_AT_EPOCH":3350,"BSTAR":0.00022408996,"MEAN_MOTION_DOT":0.00004822,"MEAN_MOTION_DDOT":0},{"OBJECT_NAME":"FLOCK 4H-23","OBJECT_ID":"2025-276BN","EPOCH":"2026-07-07T16:52:36.905088","CLASSIFICATION_TYPE":"U","MEAN_MOTION":15.20006797,"ECCENTRICITY":0.0002831,"INCLINATION":97.423,"RA_OF_ASC_NODE":261.9617,"ARG_OF_PERICENTER":286.5407,"MEAN_ANOMALY":73.5517,"EPHEMERIS_TYPE":0,"NORAD_CAT_ID":66726,"ELEMENT_SET_NO":999,"REV_AT_EPOCH":3353,"BSTAR":0.00020719,"MEAN_MOTION_DOT":0.00004395,"MEAN_MOTION_DDOT":0},{"OBJECT_NAME":"FLOCK 4H-24","OBJECT_ID":"2025-276BP","EPOCH":"2026-07-07T18:06:16.229664","CLASSIFICATION_TYPE":"U","MEAN_MOTION":15.20114933,"ECCENTRICITY":0.0002508,"INCLINATION":97.4227,"RA_OF_ASC_NODE":262.0405,"ARG_OF_PERICENTER":311.0332,"MEAN_ANOMALY":49.0686,"EPHEMERIS_TYPE":0,"NORAD_CAT_ID":66727,"ELEMENT_SET_NO":999,"REV_AT_EPOCH":3354,"BSTAR":0.00023944,"MEAN_MOTION_DOT":0.00005107,"MEAN_MOTION_DDOT":0},{"OBJECT_NAME":"FLOCK 4H-25","OBJECT_ID":"2025-276BQ","EPOCH":"2026-07-07T18:13:34.784832","CLASSIFICATION_TYPE":"U","MEAN_MOTION":15.20883923,"ECCENTRICITY":0.0001504,"INCLINATION":97.4183,"RA_OF_ASC_NODE":262.2084,"ARG_OF_PERICENTER":130.0976,"MEAN_ANOMALY":230.0391,"EPHEMERIS_TYPE":0,"NORAD_CAT_ID":66728,"ELEMENT_SET_NO":999,"REV_AT_EPOCH":3284,"BSTAR":0.00020169,"MEAN_MOTION_DOT":0.00004388,"MEAN_MOTION_DDOT":0},{"OBJECT_NAME":"FLOCK 4H-26","OBJECT_ID":"2025-276BR","EPOCH":"2026-07-07T17:17:39.587712","CLASSIFICATION_TYPE":"U","MEAN_MOTION":15.19839679,"ECCENTRICITY":0.000326,"INCLINATION":97.4181,"RA_OF_ASC_NODE":261.7969,"ARG_OF_PERICENTER":305.1114,"MEAN_ANOMALY":54.9815,"EPHEMERIS_TYPE":0,"NORAD_CAT_ID":66729,"ELEMENT_SET_NO":999,"REV_AT_EPOCH":3353,"BSTAR":0.00018389,"MEAN_MOTION_DOT":0.00003874,"MEAN_MOTION_DDOT":0},{"OBJECT_NAME":"FLOCK 4H-27","OBJECT_ID":"2025-276BS","EPOCH":"2026-07-07T17:21:40.326624","CLASSIFICATION_TYPE":"U","MEAN_MOTION":15.20705455,"ECCENTRICITY":0.0001213,"INCLINATION":97.4158,"RA_OF_ASC_NODE":262.0306,"ARG_OF_PERICENTER":122.0756,"MEAN_ANOMALY":238.0597,"EPHEMERIS_TYPE":0,"NORAD_CAT_ID":66730,"ELEMENT_SET_NO":999,"REV_AT_EPOCH":3355,"BSTAR":0.00019269,"MEAN_MOTION_DOT":0.00004167,"MEAN_MOTION_DDOT":0},{"OBJECT_NAME":"FLOCK 4H-29","OBJECT_ID":"2025-276BU","EPOCH":"2026-07-07T15:14:22.451712","CLASSIFICATION_TYPE":"U","MEAN_MOTION":15.19977921,"ECCENTRICITY":0.0002032,"INCLINATION":97.4158,"RA_OF_ASC_NODE":261.6956,"ARG_OF_PERICENTER":333.2199,"MEAN_ANOMALY":26.8931,"EPHEMERIS_TYPE":0,"NORAD_CAT_ID":66732,"ELEMENT_SET_NO":999,"REV_AT_EPOCH":3352,"BSTAR":0.0002219,"MEAN_MOTION_DOT":0.00004708,"MEAN_MOTION_DDOT":0},{"OBJECT_NAME":"FLOCK 4H-30","OBJECT_ID":"2025-276BV","EPOCH":"2026-07-07T18:13:10.642080","CLASSIFICATION_TYPE":"U","MEAN_MOTION":15.20102778,"ECCENTRICITY":0.0002778,"INCLINATION":97.4221,"RA_OF_ASC_NODE":262.0176,"ARG_OF_PERICENTER":307.6422,"MEAN_ANOMALY":52.456,"EPHEMERIS_TYPE":0,"NORAD_CAT_ID":66733,"ELEMENT_SET_NO":999,"REV_AT_EPOCH":3354,"BSTAR":0.00023531,"MEAN_MOTION_DOT":0.00005015,"MEAN_MOTION_DDOT":0},{"OBJECT_NAME":"FLOCK 4H-31","OBJECT_ID":"2025-276BW","EPOCH":"2026-07-07T18:41:48.871104","CLASSIFICATION_TYPE":"U","MEAN_MOTION":15.19880321,"ECCENTRICITY":0.000235,"INCLINATION":97.4158,"RA_OF_ASC_NODE":261.8055,"ARG_OF_PERICENTER":324.0764,"MEAN_ANOMALY":36.0313,"EPHEMERIS_TYPE":0,"NORAD_CAT_ID":66734,"ELEMENT_SET_NO":999,"REV_AT_EPOCH":3354,"BSTAR":0.00018566,"MEAN_MOTION_DOT":0.00003917,"MEAN_MOTION_DDOT":0},{"OBJECT_NAME":"FLOCK 4H-32","OBJECT_ID":"2025-276BX","EPOCH":"2026-07-07T10:31:15.047904","CLASSIFICATION_TYPE":"U","MEAN_MOTION":15.1999659,"ECCENTRICITY":0.00030833,"INCLINATION":97.4212,"RA_OF_ASC_NODE":261.6596,"ARG_OF_PERICENTER":304.7988,"MEAN_ANOMALY":55.2956,"EPHEMERIS_TYPE":0,"NORAD_CAT_ID":66735,"ELEMENT_SET_NO":999,"REV_AT_EPOCH":3349,"BSTAR":0.00021111168,"MEAN_MOTION_DOT":0.00004479,"MEAN_MOTION_DDOT":0}]}
