FLOCK 4H-15             
1 66718U 25276BE  26188.72407132  .00004141  00000+0  19643-3 0  9996
2 66718  97.4210 261.8751 0002910 318.5132  41.5881 15.19820385 33531
FLOCK 4H-16             
1 66719U 25276BF  26188.76392133  .00004918  00000+0  23090-3 0  9998
2 66719  97.4227 262.0201 0002784 298.6985  61.3970 15.20086773 33543
FLOCK 4H-18             
1 66721U 25276BH  26188.76980316  .00004510  00000+0  21237-3 0  9996
2 66721  97.4166 261.8458 0002651 333.9220  26.1881 15.20028641 33547
FLOCK 4H-19             
1 66722U 25276BJ  26188.70913273  .00003713  00000+0  16943-3 0  9991
2 66722  97.4167 262.2351 0001759 163.5085 196.6208 15.21229744 32857
FLOCK 4H-20             
1 66723U 25276BK  26188.77781992  .00004044  00000+0  18343-3 0  9994
2 66723  97.4205 262.4033 0002101 192.6017 167.5166 15.21383130 32827
FLOCK 4H-21             
1 66724U 25276BL  26188.74137573  .00005012  00000+0  22931-3 0  9996
2 66724  97.4173 262.1995 0001945 191.9625 168.1565 15.20970293 32818
FLOCK 4H-22             
1 66725U 25276BM  26188.45436883  .00004822  00000+0  22409-3 0  9999
2 66725  97.4161 261.6346 0001533 350.5487   9.5719 15.20452010 33500
FLOCK 4H-23             
1 66726U 25276BN  26188.70320492  .00004395  00000+0  20719-3 0  9993
2 66726  97.4230 261.9617 0002831 286.5407  73.5517 15.20006797 33531
FLOCK 4H-24             
1 66727U 25276BP  26188.75435451  .00005107  00000+0  23944-3 0  9996
2 66727  97.4227 262.0405 0002508 311.0332  49.0686 15.20114933 33545
FLOCK 4H-25             
1 66728U 25276BQ  26188.75943038  .00004388  00000+0  20169-3 0  9998
2 66728  97.4183 262.2084 0001504 130.0976 230.0391 15.20883923 32849
FLOCK 4H-26             
1 66729U 25276BR  26188.72059708  .00003874  00000+0  18389-3 0  9998
2 66729  97.4181 261.7969 0003260 305.1114  54.9815 15.19839679 33532
FLOCK 4H-27             
1 66730U 25276BS  26188.72338341  .00004167  00000+0  19269-3 0  9997
2 66730  97.4158 262.0306 0001213 122.0756 238.0597 15.20705455 33551
FLOCK 4H-29             
1 66732U 25276BU  26188.63498208  .00004708  00000+0  22190-3 0  9996
2 66732  97.4158 261.6956 0002032 333.2199  26.8931 15.19977921 33525
FLOCK 4H-30             
1 66733U 25276BV  26188.75915095  .00005015  00000+0  23531-3 0  9990
2 66733  97.4221 262.0176 0002778 307.6422  52.4560 15.20102778 33544
FLOCK 4H-31             
1 66734U 25276BW  26188.77903786  .00003917  00000+0  18566-3 0  9998
2 66734  97.4158 261.8055 0002350 324.0764  36.0313 15.19880321 33544
FLOCK 4H-32             
1 66735U 25276BX  26188.43836861  .00004479  00000+0  21111-3 0  9995
2 66735  97.4212 261.6596 0003083 304.7988  55.2956 15.19996590 33497
